ORBCOMM-X               
1 21576U 91050C   24158.46559733  .00000666  00000+0  21390-3 0  9993
2 21576  98.3898 225.8625 0002671 227.6791 132.4173 14.42540110727939
ORBCOMM FM01            
1 23545U 95017A   24158.46559488  .00008851  00000+0  11641-2 0  9996
2 23545  69.9675 284.2600 0006526 200.0527 160.0367 14.80456947556715
ORBCOMM FM02            
1 23546U 95017B   24158.50150068  .00009066  00000+0  12023-2 0  9997
2 23546  69.9689 303.6414 0008098 187.3244 172.7789 14.80087014556363
ORBCOMM FM08            
1 25112U 97084A   24158.26533468  .00003038  00000+0  94562-3 0  9998
2 25112  45.0154   8.3245 0007684 151.3265 208.8009 14.42740076387024
ORBCOMM FM10            
1 25113U 97084B   24157.85855323  .00002513  00000+0  79150-3 0  9993
2 25113  45.0167  12.1449 0005283 121.1249 239.0119 14.42631858562118
ORBCOMM FM11            
1 25114U 97084C   24158.29509742  .00002853  00000+0  89521-3 0  9994
2 25114  45.0154  10.1514 0006071 123.4101 236.7330 14.42507139387145
ORBCOMM FM12            
1 25115U 97084D   24158.32481998  .00002676  00000+0  84282-3 0  9993
2 25115  45.0159   9.7144 0005095 124.4642 235.6690 14.42474201386947
ORBCOMM FM09            
1 25116U 97084E   24158.26755432  .00002689  00000+0  84731-3 0  9997
2 25116  45.0165  10.6827 0006059 109.1499 251.0008 14.42434430387143
