<?xml version="1.0" encoding="UTF-8"?>
<ndm xmlns:xsi="http://www.w3.org/2001/XMLSchema-instance" xsi:noNamespaceSchemaLocation="https://sanaregistry.org/r/ndmxml_unqualified/ndmxml-2.0.0-master-2.0.xsd">
<omm id="CCSDS_OMM_VERS" version="2.0">
<header><CREATION_DATE/><ORIGINATOR/></header><body><segment><metadata><OBJECT_NAME>ORBCOMM-X</OBJECT_NAME><OBJECT_ID>1991-050C</OBJECT_ID><CENTER_NAME>EARTH</CENTER_NAME><REF_FRAME>TEME</REF_FRAME><TIME_SYSTEM>UTC</TIME_SYSTEM><MEAN_ELEMENT_THEORY>SGP4</MEAN_ELEMENT_THEORY></metadata><data><meanElements><EPOCH>2024-06-06T11:10:27.609312</EPOCH><MEAN_MOTION>14.42540110</MEAN_MOTION><ECCENTRICITY>.0002671</ECCENTRICITY><INCLINATION>98.3898</INCLINATION><RA_OF_ASC_NODE>225.8625</RA_OF_ASC_NODE><ARG_OF_PERICENTER>227.6791</ARG_OF_PERICENTER><MEAN_ANOMALY>132.4173</MEAN_ANOMALY></meanElements><tleParameters><EPHEMERIS_TYPE>0</EPHEMERIS_TYPE><CLASSIFICATION_TYPE>U</CLASSIFICATION_TYPE><NORAD_CAT_ID>21576</NORAD_CAT_ID><ELEMENT_SET_NO>999</ELEMENT_SET_NO><REV_AT_EPOCH>72793</REV_AT_EPOCH><BSTAR>.2139E-3</BSTAR><MEAN_MOTION_DOT>.666E-5</MEAN_MOTION_DOT><MEAN_MOTION_DDOT>0</MEAN_MOTION_DDOT></tleParameters></data></segment></body></omm>
<omm id="CCSDS_OMM_VERS" version="2.0">
<header><CREATION_DATE/><ORIGINATOR/></header><body><segment><metadata><OBJECT_NAME>ORBCOMM FM01</OBJECT_NAME><OBJECT_ID>1995-017A</OBJECT_ID><CENTER_NAME>EARTH</CENTER_NAME><REF_FRAME>TEME</REF_FRAME><TIME_SYSTEM>UTC</TIME_SYSTEM><MEAN_ELEMENT_THEORY>SGP4</MEAN_ELEMENT_THEORY></metadata><data><meanElements><EPOCH>2024-06-06T11:10:27.397632</EPOCH><MEAN_MOTION>14.80456947</MEAN_MOTION><ECCENTRICITY>.0006526</ECCENTRICITY><INCLINATION>69.9675</INCLINATION><RA_OF_ASC_NODE>284.2600</RA_OF_ASC_NODE><ARG_OF_PERICENTER>200.0527</ARG_OF_PERICENTER><MEAN_ANOMALY>160.0367</MEAN_ANOMALY></meanElements><tleParameters><EPHEMERIS_TYPE>0</EPHEMERIS_TYPE><CLASSIFICATION_TYPE>U</CLASSIFICATION_TYPE><NORAD_CAT_ID>23545</NORAD_CAT_ID><ELEMENT_SET_NO>999</ELEMENT_SET_NO><REV_AT_EPOCH>55671</REV_AT_EPOCH><BSTAR>.11641E-2</BSTAR><MEAN_MOTION_DOT>.8851E-4</MEAN_MOTION_DOT><MEAN_MOTION_DDOT>0</MEAN_MOTION_DDOT></tleParameters></data></segment></body></omm>
<omm id="CCSDS_OMM_VERS" version="2.0">
<header><CREATION_DATE/><ORIGINATOR/></header><body><segment><metadata><OBJECT_NAME>ORBCOMM FM02</OBJECT_NAME><OBJECT_ID>1995-017B</OBJECT_ID><CENTER_NAME>EARTH</CENTER_NAME><REF_FRAME>TEME</REF_FRAME><TIME_SYSTEM>UTC</TIME_SYSTEM><MEAN_ELEMENT_THEORY>SGP4</MEAN_ELEMENT_THEORY></metadata><data><meanElements><EPOCH>2024-06-06T12:02:09.658752</EPOCH><MEAN_MOTION>14.80087014</MEAN_MOTION><ECCENTRICITY>.0008098</ECCENTRICITY><INCLINATION>69.9689</INCLINATION><RA_OF_ASC_NODE>303.6414</RA_OF_ASC_NODE><ARG_OF_PERICENTER>187.3244</ARG_OF_PERICENTER><MEAN_ANOMALY>172.7789</MEAN_ANOMALY></meanElements><tleParameters><EPHEMERIS_TYPE>0</EPHEMERIS_TYPE><CLASSIFICATION_TYPE>U</CLASSIFICATION_TYPE><NORAD_CAT_ID>23546</NORAD_CAT_ID><ELEMENT_SET_NO>999</ELEMENT_SET_NO><REV_AT_EPOCH>55636</REV_AT_EPOCH><BSTAR>.12023E-2</BSTAR><MEAN_MOTION_DOT>.9066E-4</MEAN_MOTION_DOT><MEAN_MOTION_DDOT>0</MEAN_MOTION_DDOT></tleParameters></data></segment></body></omm>
<omm id="CCSDS_OMM_VERS" version="2.0">
<header><CREATION_DATE/><ORIGINATOR/></header><body><segment><metadata><OBJECT_NAME>ORBCOMM FM08</OBJECT_NAME><OBJECT_ID>1997-084A</OBJECT_ID><CENTER_NAME>EARTH</CENTER_NAME><REF_FRAME>TEME</REF_FRAME><TIME_SYSTEM>UTC</TIME_SYSTEM><MEAN_ELEMENT_THEORY>SGP4</MEAN_ELEMENT_THEORY></metadata><data><meanElements><EPOCH>2024-06-06T06:22:04.916352</EPOCH><MEAN_MOTION>14.42740076</MEAN_MOTION><ECCENTRICITY>.0007684</ECCENTRICITY><INCLINATION>45.0154</INCLINATION><RA_OF_ASC_NODE>8.3245</RA_OF_ASC_NODE><ARG_OF_PERICENTER>151.3265</ARG_OF_PERICENTER><MEAN_ANOMALY>208.8009</MEAN_ANOMALY></meanElements><tleParameters><EPHEMERIS_TYPE>0</EPHEMERIS_TYPE><CLASSIFICATION_TYPE>U</CLASSIFICATION_TYPE><NORAD_CAT_ID>25112</NORAD_CAT_ID><ELEMENT_SET_NO>999</ELEMENT_SET_NO><REV_AT_EPOCH>38702</REV_AT_EPOCH><BSTAR>.94562E-3</BSTAR><MEAN_MOTION_DOT>.3038E-4</MEAN_MOTION_DOT><MEAN_MOTION_DDOT>0</MEAN_MOTION_DDOT></tleParameters></data></segment></body></omm>
<omm id="CCSDS_OMM_VERS" version="2.0">
<header><CREATION_DATE/><ORIGINATOR/></header><body><segment><metadata><OBJECT_NAME>ORBCOMM FM10</OBJECT_NAME><OBJECT_ID>1997-084B</OBJECT_ID><CENTER_NAME>EARTH</CENTER_NAME><REF_FRAME>TEME</REF_FRAME><TIME_SYSTEM>UTC</TIME_SYSTEM><MEAN_ELEMENT_THEORY>SGP4</MEAN_ELEMENT_THEORY></metadata><data><meanElements><EPOCH>2024-06-05T20:36:18.999072</EPOCH><MEAN_MOTION>14.42631858</MEAN_MOTION><ECCENTRICITY>.0005283</ECCENTRICITY><INCLINATION>45.0167</INCLINATION><RA_OF_ASC_NODE>12.1449</RA_OF_ASC_NODE><ARG_OF_PERICENTER>121.1249</ARG_OF_PERICENTER><MEAN_ANOMALY>239.0119</MEAN_ANOMALY></meanElements><tleParameters><EPHEMERIS_TYPE>0</EPHEMERIS_TYPE><CLASSIFICATION_TYPE>U</CLASSIFICATION_TYPE><NORAD_CAT_ID>25113</NORAD_CAT_ID><ELEMENT_SET_NO>999</ELEMENT_SET_NO><REV_AT_EPOCH>56211</REV_AT_EPOCH><BSTAR>.7915E-3</BSTAR><MEAN_MOTION_DOT>.2513E-4</MEAN_MOTION_DOT><MEAN_MOTION_DDOT>0</MEAN_MOTION_DDOT></tleParameters></data></segment></body></omm>
<omm id="CCSDS_OMM_VERS" version="2.0">
<header><CREATION_DATE/><ORIGINATOR/></header><body><segment><metadata><OBJECT_NAME>ORBCOMM FM11</OBJECT_NAME><OBJECT_ID>1997-084C</OBJECT_ID><CENTER_NAME>EARTH</CENTER_NAME><REF_FRAME>TEME</REF_FRAME><TIME_SYSTEM>UTC</TIME_SYSTEM><MEAN_ELEMENT_THEORY>SGP4</MEAN_ELEMENT_THEORY></metadata><data><meanElements><EPOCH>2024-06-06T07:04:56.417088</EPOCH><MEAN_MOTION>14.42507139</MEAN_MOTION><ECCENTRICITY>.0006071</ECCENTRICITY><INCLINATION>45.0154</INCLINATION><RA_OF_ASC_NODE>10.1514</RA_OF_ASC_NODE><ARG_OF_PERICENTER>123.4101</ARG_OF_PERICENTER><MEAN_ANOMALY>236.7330</MEAN_ANOMALY></meanElements><tleParameters><EPHEMERIS_TYPE>0</EPHEMERIS_TYPE><CLASSIFICATION_TYPE>U</CLASSIFICATION_TYPE><NORAD_CAT_ID>25114</NORAD_CAT_ID><ELEMENT_SET_NO>999</ELEMENT_SET_NO><REV_AT_EPOCH>38714</REV_AT_EPOCH><BSTAR>.89521E-3</BSTAR><MEAN_MOTION_DOT>.2853E-4</MEAN_MOTION_DOT><MEAN_MOTION_DDOT>0</MEAN_MOTION_DDOT></tleParameters></data></segment></body></omm>
<omm id="CCSDS_OMM_VERS" version="2.0">
<header><CREATION_DATE/><ORIGINATOR/></header><body><segment><metadata><OBJECT_NAME>ORBCOMM FM12</OBJECT_NAME><OBJECT_ID>1997-084D</OBJECT_ID><CENTER_NAME>EARTH</CENTER_NAME><REF_FRAME>TEME</REF_FRAME><TIME_SYSTEM>UTC</TIME_SYSTEM><MEAN_ELEMENT_THEORY>SGP4</MEAN_ELEMENT_THEORY></metadata><data><meanElements><EPOCH>2024-06-06T07:47:44.446272</EPOCH><MEAN_MOTION>14.42474201</MEAN_MOTION><ECCENTRICITY>.0005095</ECCENTRICITY><INCLINATION>45.0159</INCLINATION><RA_OF_ASC_NODE>9.7144</RA_OF_ASC_NODE><ARG_OF_PERICENTER>124.4642</ARG_OF_PERICENTER><MEAN_ANOMALY>235.6690</MEAN_ANOMALY></meanElements><tleParameters><EPHEMERIS_TYPE>0</EPHEMERIS_TYPE><CLASSIFICATION_TYPE>U</CLASSIFICATION_TYPE><NORAD_CAT_ID>25115</NORAD_CAT_ID><ELEMENT_SET_NO>999</ELEMENT_SET_NO><REV_AT_EPOCH>38694</REV_AT_EPOCH><BSTAR>.84282E-3</BSTAR><MEAN_MOTION_DOT>.2676E-4</MEAN_MOTION_DOT><MEAN_MOTION_DDOT>0</MEAN_MOTION_DDOT></tleParameters></data></segment></body></omm>
<omm id="CCSDS_OMM_VERS" version="2.0">
<header><CREATION_DATE/><ORIGINATOR/></header><body><segment><metadata><OBJECT_NAME>ORBCOMM FM09</OBJECT_NAME><OBJECT_ID>1997-084E</OBJECT_ID><CENTER_NAME>EARTH</CENTER_NAME><REF_FRAME>TEME</REF_FRAME><TIME_SYSTEM>UTC</TIME_SYSTEM><MEAN_ELEMENT_THEORY>SGP4</MEAN_ELEMENT_THEORY></metadata><data><meanElements><EPOCH>2024-06-06T06:25:16.693248</EPOCH><MEAN_MOTION>14.42434430</MEAN_MOTION><ECCENTRICITY>.0006059</ECCENTRICITY><INCLINATION>45.0165</INCLINATION><RA_OF_ASC_NODE>10.6827</RA_OF_ASC_NODE><ARG_OF_PERICENTER>109.1499</ARG_OF_PERICENTER><MEAN_ANOMALY>251.0008</MEAN_ANOMALY></meanElements><tleParameters><EPHEMERIS_TYPE>0</EPHEMERIS_TYPE><CLASSIFICATION_TYPE>U</CLASSIFICATION_TYPE><NORAD_CAT_ID>25116</NORAD_CAT_ID><ELEMENT_SET_NO>999</ELEMENT_SET_NO><REV_AT_EPOCH>38714</REV_AT_EPOCH><BSTAR>.84731E-3</BSTAR><MEAN_MOTION_DOT>.2689E-4</MEAN_MOTION_DOT><MEAN_MOTION_DDOT>0</MEAN_MOTION_DDOT></tleParameters></data></segment></body></omm>

</ndm>
